NORAD_CAT_ID,OBJECT_NAME,OBJECT_TYPE,EPOCH,MEAN_MOTION,ECCENTRICITY,INCLINATION,RA_OF_ASC_NODE,ARG_OF_PERICENTER,MEAN_ANOMALY,BSTAR,MEAN_MOTION_DOT,MEAN_MOTION_DDOT,TLE_LINE0,TLE_LINE1,TLE_LINE2,SEMIMAJOR_AXIS,PERIOD,APOGEE,PERIGEE,DECAYED
53037.0,STARLINK-4153,PAYLOAD,2022-10-21 06:00:00,15.23352858,0.0001317,53.2174,220.5388,69.0564,217.2836,-0.048034,-0.01059249,0.0,0 STARLINK-4153,1 53037U 22076BD  22294.25001157 -.01059249  00000-0 -48034-1 0  9997,2 53037  53.2174 220.5388 0001317  69.0564 217.2836 15.23352858 17078,6873.873000000001,94.528,496.643,494.833,0.0
53037.0,STARLINK-4153,PAYLOAD,2022-10-21 14:00:01,15.22595031,0.0001257,53.2175,219.0079,65.9515,248.9623,-0.049304,-0.01062639,0.0,0 STARLINK-4153,1 53037U 22076BD  22294.58334491 -.01062639  00000-0 -49304-1 0  9991,2 53037  53.2175 219.0079 0001257  65.9515 248.9623 15.22595031  1308,6876.154,94.575,498.883,497.154,0.0
53037.0,STARLINK-4153,PAYLOAD,2022-10-21 22:00:00,15.21842608,0.0001277,53.2172,217.4801,62.5283,280.0429,-0.05093,-0.01072533,0.0,0 STARLINK-4153,1 53037U 22076BD  22294.91667824 -.01072533  00000-0 -50930-1 0  9998,2 53037  53.2172 217.4801 0001277  62.5283 280.0429 15.21842608  1302,6878.42,94.622,501.163,499.406,0.0
53037.0,STARLINK-4153,PAYLOAD,2022-10-22 08:00:01,15.20886243,0.0001488,53.2171,215.5751,53.2726,52.5929,-0.0518289999999999,-0.01062043,0.0,0 STARLINK-4153,1 53037U 22076BD  22295.33334491 -.01062043  00000-0 -51829-1 0  9999,2 53037  53.2171 215.5751 0001488  53.2726  52.5929 15.20886243 17235,6881.303000000001,94.682,504.192,502.144,0.0
53037.0,STARLINK-4153,PAYLOAD,2022-10-22 14:00:01,15.20315514,0.0001249,53.2174,214.431,62.3441,332.8136,-0.0526639999999999,-0.01061212,0.0,0 STARLINK-4153,1 53037U 22076BD  22295.58334491 -.01061212  00000-0 -52664-1 0  9991,2 53037  53.2174 214.4310 0001249  62.3441 332.8136 15.20315514  1300,6883.025,94.717,505.75,504.03,0.0
53037.0,STARLINK-4153,PAYLOAD,2022-10-22 22:00:00,15.19584347,0.0001371,53.2172,212.9084,64.8863,355.1806,-0.055973,-0.0111472,0.0,0 STARLINK-4153,1 53037U 22076BD  22295.91667824 -.01114720  00000-0 -55973-1 0  9996,2 53037  53.2172 212.9084 0001371  64.8863 355.1806 15.19584347  1302,6885.233,94.763,508.042,506.154,0.0
53037.0,STARLINK-4153,PAYLOAD,2022-10-23 08:00:01,15.18607746,0.0001472,53.2172,211.0102,64.686,115.3259,-0.055421,-0.0107578999999999,0.0,0 STARLINK-4153,1 53037U 22076BD  22296.33335648 -.01075790  00000-0 -55421-1 0  9990,2 53037  53.2172 211.0102 0001472  64.6860 115.3259 15.18607746 17381,6888.184,94.824,511.06300000000016,509.036,0.0
53037.0,STARLINK-4153,PAYLOAD,2022-10-23 14:00:01,15.18036864,0.00014,53.2174,209.8702,60.3224,46.8648,-0.056251,-0.01074087,0.0,0 STARLINK-4153,1 53037U 22076BD  22296.58334491 -.01074087  00000-0 -56251-1 0  9992,2 53037  53.2174 209.8702 0001400  60.3224  46.8648 15.18036864  1304,6889.911,94.859,512.741,510.812,0.0
53037.0,STARLINK-4153,PAYLOAD,2022-10-23 22:00:00,15.17293417,0.0001526,53.2173,208.353,61.0723,68.292,-0.058801,-0.0109711,0.0,0 STARLINK-4153,1 53037U 22076BD  22296.91667824 -.01097110  00000-0 -58801-1 0  9993,2 53037  53.2173 208.3530 0001526  61.0723  68.2920 15.17293417  1306,6892.1619999999975,94.906,515.078,512.975,0.0
53037.0,STARLINK-4153,PAYLOAD,2022-10-24 06:00:00,15.16530728,0.0001541,53.2172,206.8395,59.9829,90.6534,-0.059747,-0.01091039,0.0,0 STARLINK-4153,1 53037U 22076BD  22297.25001157 -.01091039  00000-0 -59747-1 0  9996,2 53037  53.2172 206.8395 0001541  59.9829  90.6534 15.16530728 17526,6894.472,94.954,517.4,515.275,0.0
53037.0,STARLINK-4153,PAYLOAD,2022-10-24 14:00:01,15.15760166,0.0001592,53.2175,205.3249,56.4629,114.5391,-0.060208,-0.01076582,0.0,0 STARLINK-4153,1 53037U 22076BD  22297.58334491 -.01076582  00000-0 -60208-1 0  9992,2 53037  53.2175 205.3249 0001592  56.4629 114.5391 15.15760166  1303,6896.809,95.002,519.7719999999998,517.576,0.0
53037.0,STARLINK-4153,PAYLOAD,2022-10-24 22:00:00,15.15013148,0.0001553,53.2175,203.8136,66.1421,124.3001,-0.062562,-0.01093714,0.0,0 STARLINK-4153,1 53037U 22076BD  22297.91667824 -.01093714  00000-0 -62562-1 0  9999,2 53037  53.2175 203.8136 0001553  66.1421 124.3001 15.15013148  1304,6899.076,95.049,522.012,519.869,0.0
53037.0,STARLINK-4153,PAYLOAD,2022-10-25 14:00:01,15.13478129,0.0001465,53.2174,200.7962,66.4911,160.1138,-0.063889,-0.01071087,0.0,0 STARLINK-4153,1 53037U 22076BD  22298.58334491 -.01071087  00000-0 -63889-1 0  9996,2 53037  53.2174 200.7962 0001465  66.4911 160.1138 15.13478129  1306,6903.74,95.145,526.616,524.5930000000002,0.0
53037.0,STARLINK-4153,PAYLOAD,2022-10-25 22:00:01,15.12733393,0.000139,53.2175,199.2903,65.1857,178.1836,-0.066636,-0.01092242,0.0,0 STARLINK-4153,1 53037U 22076BD  22298.91668981 -.01092242  00000-0 -66636-1 0  9996,2 53037  53.2175 199.2903 0001390  65.1857 178.1836 15.12733393  1306,6906.005,95.192,528.83,526.91,0.0
53037.0,STARLINK-4153,PAYLOAD,2022-10-26 14:00:01,15.11200176,0.0001401,53.2174,196.2833,64.6749,209.3169,-0.0681399999999999,-0.01071574,0.0,0 STARLINK-4153,1 53037U 22076BD  22299.58334491 -.01071574  00000-0 -68140-1 0  9993,2 53037  53.2174 196.2833 0001401  64.6749 209.3169 15.11200176  1304,6910.676,95.289,533.509,531.572,0.0
53037.0,STARLINK-4153,PAYLOAD,2022-10-26 16:00:01,15.11009969,0.0001354,53.2174,195.9078,59.7503,307.8828,-0.068482,-0.01071273,0.0,0 STARLINK-4153,1 53037U 22076BD  22299.66668981 -.01071273  00000-0 -68482-1 0  9991,2 53037  53.2174 195.9078 0001354  59.7503 307.8828 15.11009969 17895,6911.255999999999,95.3,534.056,532.185,0.0
53037.0,STARLINK-4153,PAYLOAD,2022-10-26 22:00:00,15.10441492,0.0001464,53.2175,194.7838,62.8545,225.1067,-0.0696789999999999,-0.01072797,0.0,0 STARLINK-4153,1 53037U 22076BD  22299.91667824 -.01072797  00000-0 -69679-1 0  9995,2 53037  53.2175 194.7838 0001464  62.8545 225.1067 15.10441492  1306,6912.99,95.336,535.867,533.8430000000002,0.0
53037.0,STARLINK-4153,PAYLOAD,2022-10-27 14:00:01,15.09007271,0.0001476999999999,53.2174,191.7845,57.4151,255.7617,-0.011885,-0.00185455,0.0,0 STARLINK-4153,1 53037U 22076BD  22300.58335648 -.00185455  00000-0 -11885-1 0  9998,2 53037  53.2174 191.7845 0001477  57.4151 255.7617 15.09007271 18036,6917.369000000002,95.427,540.256,538.212,0.0
53037.0,STARLINK-4153,PAYLOAD,2022-10-27 22:00:00,15.08836069,0.0001621999999999,53.2175,190.2909,53.2693,271.5679,0.00010282,1.349e-05,0.0,0 STARLINK-4153,1 53037U 22076BD  22300.91667824  .00001349  00000-0  10282-3 0  9998,2 53037  53.2175 190.2909 0001622  53.2693 271.5679 15.08836069  1309,6917.892,95.438,540.879,538.635,0.0
53037.0,STARLINK-4153,PAYLOAD,2022-10-28 02:00:01,15.08832604,0.0001495,53.2173,189.5371,55.0892,95.4602,0.0027874,0.00044344,0.0,0 STARLINK-4153,1 53037U 22076BD  22301.08335648  .00044344  00000-0  27874-2 0  9999,2 53037  53.2173 189.5371 0001495  55.0892  95.4602 15.08832604 18106,6917.903,95.438,540.802,538.734,0.0
53037.0,STARLINK-4153,PAYLOAD,2022-10-28 14:00:01,15.08854604,0.0001378,53.2168,187.2906,64.8502,283.1216,0.0006684,0.0001036999999999,0.0,0 STARLINK-4153,1 53037U 22076BD  22301.58335648  .00010370  00000-0  66840-3 0  9993,2 53037  53.2168 187.2906 0001378  64.8502 283.1216 15.08854604  1300,6917.8359999999975,95.437,540.654,538.747,0.0
53037.0,STARLINK-4153,PAYLOAD,2022-10-28 22:00:01,15.08872517,0.0001505,53.2167,185.7956,60.7596,298.8296,-0.0035009,-0.00055624,0.0,0 STARLINK-4153,1 53037U 22076BD  22301.91668981 -.00055624  00000-0 -35009-2 0  9994,2 53037  53.2167 185.7956 0001505  60.7596 298.8296 15.08872517  1301,6917.781,95.435,540.687,538.605,0.0
53037.0,STARLINK-4153,PAYLOAD,2022-10-29 00:00:02,15.08858713,0.000155,53.2167,185.4219,59.724,32.772,-0.0024729,-0.00039449,0.0,0 STARLINK-4153,1 53037U 22076BD  22302.00002315 -.00039449  00000-0 -24729-2 0  9992,2 53037  53.2167 185.4219 0001550  59.7240  32.7720 15.08858713 18244,6917.823,95.436,540.76,538.616,0.0
53037.0,STARLINK-4153,PAYLOAD,2022-10-29 12:00:00,15.08825583,0.0001347,53.2163,183.1758,65.0978,224.7506,0.0033196999999999,0.00052921,0.0,0 STARLINK-4153,1 53037U 22076BD  22302.50001157  .00052921  00000-0  33197-2 0  9997,2 53037  53.2163 183.1758 0001347  65.0978 224.7506 15.08825583  1308,6917.924,95.438,540.721,538.8580000000002,0.0
53037.0,STARLINK-4153,PAYLOAD,2022-10-29 22:00:01,15.08855534,0.0001558,53.2168,181.3081,62.8736,331.5522,-0.0013135,-0.0002114,0.0,0 STARLINK-4153,1 53037U 22076BD  22302.91668981 -.00021140  00000-0 -13135-2 0  9997,2 53037  53.2168 181.3081 0001558  62.8736 331.5522 15.08855534  1307,6917.833000000001,95.437,540.776,538.62,0.0
53037.0,STARLINK-4153,PAYLOAD,2022-10-30 00:00:00,15.08837399,0.0001597,53.2169,180.9351,61.8873,65.3818,0.00099648,0.00015605,0.0,0 STARLINK-4153,1 53037U 22076BD  22303.00001157  .00015605  00000-0  99648-3 0  9995,2 53037  53.2169 180.9351 0001597  61.8873  65.3818 15.08837399 18393,6917.888000000001,95.438,540.8580000000002,538.649,0.0
53037.0,STARLINK-4153,PAYLOAD,2022-10-30 14:00:01,15.08814632,0.0001369,53.2158,178.3123,67.4875,350.0904,0.0032305,0.00051465,0.0,0 STARLINK-4153,1 53037U 22076BD  22303.58334491  .00051465  00000-0  32305-2 0  9998,2 53037  53.2158 178.3123 0001369  67.4875 350.0904 15.08814632  1308,6917.958000000001,95.439,540.77,538.876,0.0
53037.0,STARLINK-4153,PAYLOAD,2022-10-30 22:00:01,15.08850392,0.0001456,53.2158,176.8175,60.067,9.1625,-0.0030549,-0.00048593,0.0,0 STARLINK-4153,1 53037U 22076BD  22303.91668981 -.00048593  00000-0 -30549-2 0  9997,2 53037  53.2158 176.8175 0001456  60.0670   9.1625 15.08850392  1302,6917.849,95.437,540.721,538.706,0.0
53037.0,STARLINK-4153,PAYLOAD,2022-10-31 14:00:01,15.08820404,0.000133,53.2159,173.8231,65.0702,27.2704,0.0029863,0.00047534,0.0,0 STARLINK-4153,1 53037U 22076BD  22304.58334491  .00047534  00000-0  29863-2 0  9996,2 53037  53.2159 173.8231 0001330  65.0702  27.2704 15.08820404  1305,6917.94,95.439,540.725,538.885,0.0
